[{"OBJECT_NAME":"STARLINK-4602","OBJECT_ID":"2022-104AT","EPOCH":"2026-03-09T17:12:24.505920","MEAN_MOTION":15.08840116,"ECCENTRICITY":0.00012994,"INCLINATION":53.2167,"RA_OF_ASC_NODE":233.678,"ARG_OF_PERICENTER":85.3699,"MEAN_ANOMALY":274.7442,"EPHEMERIS_TYPE":0,"CLASSIFICATION_TYPE":"U","NORAD_CAT_ID":53629,"ELEMENT_SET_NO":999,"REV_AT_EPOCH":19576,"BSTAR":1.4951757e-5,"MEAN_MOTION_DOT":-5.0e-7,"MEAN_MOTION_DDOT":0},{"OBJECT_NAME":"FENGYUN 1C DEB","OBJECT_ID":"1999-025FK","EPOCH":"2026-03-09T17:46:38.104320","MEAN_MOTION":14.84141288,"ECCENTRICITY":0.01116123,"INCLINATION":98.9208,"RA_OF_ASC_NODE":354.5977,"ARG_OF_PERICENTER":225.7574,"MEAN_ANOMALY":200.963,"EPHEMERIS_TYPE":0,"CLASSIFICATION_TYPE":"U","NORAD_CAT_ID":29865,"ELEMENT_SET_NO":999,"REV_AT_EPOCH":2048,"BSTAR":0.00075888297,"MEAN_MOTION_DOT":7.012e-5,"MEAN_MOTION_DDOT":0}]
